{
    "links": {
        "self": "http://www.neowsapp.com/rest/v1/neo/54095172?api_key=iIulBulltgU6a56xZRHN4H3l9WmuAYTsLGpBGhQ2"
    },
    "id": "54095172",
    "neo_reference_id": "54095172",
    "name": "(2020 WV4)",
    "designation": "2020 WV4",
    "nasa_jpl_url": "http://ssd.jpl.nasa.gov/sbdb.cgi?sstr=54095172",
    "absolute_magnitude_h": 24.395,
    "estimated_diameter": {
        "kilometers": {
            "estimated_diameter_min": 0.035120038,
            "estimated_diameter_max": 0.0785307922
        },
        "meters": {
            "estimated_diameter_min": 35.1200379567,
            "estimated_diameter_max": 78.5307922435
        },
        "miles": {
            "estimated_diameter_min": 0.0218225731,
            "estimated_diameter_max": 0.0487967569
        },
        "feet": {
            "estimated_diameter_min": 115.2232253298,
            "estimated_diameter_max": 257.6469644242
        }
    },
    "is_potentially_hazardous_asteroid": false,
    "close_approach_data": [
        {
            "close_approach_date": "2008-12-02",
            "close_approach_date_full": "2008-Dec-02 13:15",
            "epoch_date_close_approach": 1228223700000,
            "relative_velocity": {
                "kilometers_per_second": "12.3001260966",
                "kilometers_per_hour": "44280.453947895",
                "miles_per_hour": "27514.1520655684"
            },
            "miss_distance": {
                "astronomical": "0.3569510469",
                "lunar": "138.8539572441",
                "kilometers": "53399116.310510103",
                "miles": "33180672.2671333014"
            },
            "orbiting_body": "Earth"
        },
        {
            "close_approach_date": "2020-11-20",
            "close_approach_date_full": "2020-Nov-20 13:05",
            "epoch_date_close_approach": 1605877500000,
            "relative_velocity": {
                "kilometers_per_second": "5.589807027",
                "kilometers_per_hour": "20123.3052972139",
                "miles_per_hour": "12503.839338705"
            },
            "miss_distance": {
                "astronomical": "0.1035236887",
                "lunar": "40.2707149043",
                "kilometers": "15486923.324063069",
                "miles": "9623127.9232015922"
            },
            "orbiting_body": "Earth"
        }
    ],
    "orbital_data": {
        "orbit_id": "5",
        "orbit_determination_date": "2020-12-08 05:24:02",
        "first_observation_date": "2020-11-23",
        "last_observation_date": "2020-12-08",
        "data_arc_in_days": 15,
        "observations_used": 35,
        "orbit_uncertainty": "7",
        "minimum_orbit_intersection": ".0827555",
        "jupiter_tisserand_invariant": "4.644",
        "epoch_osculation": "2459000.5",
        "eccentricity": ".2545200061737681",
        "semi_major_axis": "1.427457238584092",
        "inclination": "9.612715345329121",
        "ascending_node_longitude": "67.24973857366425",
        "orbital_period": "622.935509266482",
        "perihelion_distance": "1.064140813406879",
        "perihelion_argument": "343.3555021859171",
        "aphelion_distance": "1.790773663761305",
        "perihelion_time": "2459162.829761651032",
        "mean_anomaly": "266.1881794743339",
        "mean_motion": ".5779089402431187",
        "equinox": "J2000",
        "orbit_class": {
            "orbit_class_type": "AMO",
            "orbit_class_description": "Near-Earth asteroid orbits similar to that of 1221 Amor",
            "orbit_class_range": "1.017 AU < q (perihelion) < 1.3 AU"
        }
    },
    "is_sentry_object": false
}